OBJECT_NAME,OBJECT_ID,EPOCH,MEAN_MOTION,ECCENTRICITY,INCLINATION,RA_OF_ASC_NODE,ARG_OF_PERICENTER,MEAN_ANOMALY,EPHEMERIS_TYPE,CLASSIFICATION_TYPE,NORAD_CAT_ID,ELEMENT_SET_NO,REV_AT_EPOCH,BSTAR,MEAN_MOTION_DOT,MEAN_MOTION_DDOT
STARLINK-5842,2023-064AV,2024-09-23T13:16:56.387424,14.98335103,.0003035,70.0012,6.1600,268.3969,91.6842,0,U,56491,999,7652,.16634E-3,.1893E-4,0
STARLINK-5846,2023-064AW,2024-09-23T11:34:47.699328,14.98332412,.0002864,70.0010,6.3124,265.7187,94.3645,0,U,56492,999,7651,.42249E-4,.411E-5,0
STARLINK-5841,2023-064AX,2024-09-23T11:58:42.818016,14.98334385,.0003159,70.0009,346.0910,270.3821,89.6976,0,U,56493,999,7701,.17858E-3,.2039E-4,0
STARLINK-5530,2023-064AY,2024-09-23T13:11:10.866912,14.98340675,.0002948,70.0021,6.1451,266.0922,93.9900,0,U,56494,999,7652,.87803E-3,.10402E-3,0
STARLINK-5529,2023-064AZ,2024-09-23T12:58:54.277536,14.98333425,.0003235,70.0014,6.1153,267.6610,92.4178,0,U,56495,999,7652,.13154E-3,.1477E-4,0
STARLINK-5526,2023-064BA,2024-09-23T12:52:53.697504,14.98333341,.0002943,70.0016,6.1025,265.9084,94.1739,0,U,56496,999,7652,.11394E-3,.1267E-4,0
STARLINK-5527,2023-064BB,2024-09-23T12:47:07.503936,14.98331205,.000316,70.0014,6.0883,268.2574,91.8223,0,U,56497,999,7652,.10331E-3,.114E-4,0
STARLINK-5522,2023-064BC,2024-09-23T13:04:55.069248,14.98332688,.0003231,70.0010,6.1299,267.3080,92.7709,0,U,56498,999,7652,.2442E-4,.198E-5,0
STARLINK-5775,2023-065A,2024-09-23T05:22:03.165600,15.02533670,.0001337,43.0028,223.9948,262.2974,97.7717,0,U,56503,999,7652,.67671E-4,.711E-5,0
STARLINK-5716,2023-065B,2024-09-23T05:17:15.480384,15.02536332,.0001328,43.0007,223.9696,264.6149,95.4542,0,U,56504,999,7652,.59525E-4,.601E-5,0
STARLINK-5763,2023-065C,2024-09-23T08:25:30.881568,15.02540285,.0001069,43.0018,223.2293,265.1540,94.9180,0,U,56505,999,7654,.17746E-3,.2195E-4,0
STARLINK-5340,2023-065D,2024-09-23T13:24:15.128352,15.02540369,.0001266,43.0041,209.1904,266.4215,93.6482,0,U,56506,999,7672,.91316E-4,.103E-4,0
STARLINK-5333,2023-065E,2024-09-23T11:44:28.226976,15.02538043,.0001267,43.0061,183.5076,266.0933,93.9764,0,U,56507,999,7701,.12906E-3,.154E-4,0
STARLINK-5335,2023-065F,2024-09-23T05:09:15.537024,15.02541183,.0001294,43.0006,223.9276,270.1150,89.9544,0,U,56508,999,7652,.14063E-3,.1697E-4,0
STARLINK-5334,2023-065G,2024-09-23T14:30:50.336928,15.02552321,.0001201,43.0037,221.6910,264.2063,95.8642,0,U,56509,999,7658,-.76384E-4,-.1236E-4,0
STARLINK-5339,2023-065H,2024-09-23T14:40:25.634784,15.02543879,.0001262,43.0033,221.7415,265.7985,94.2713,0,U,56510,999,7658,.12133E-3,.1436E-4,0
STARLINK-5351,2023-065J,2024-09-23T14:26:19.517856,15.02912016,.0001228,42.9997,221.6675,253.5320,106.5387,0,U,56511,999,7658,.95388E-3,.12834E-3,0
STARLINK-5349,2023-065K,2024-09-23T14:28:26.032512,15.03205175,.000133,43.0015,221.6804,243.9623,116.1083,0,U,56512,999,7658,.13765E-2,.18774E-3,0
STARLINK-5329,2023-065L,2024-09-23T14:24:27.035424,15.02543981,.0001124,43.0024,221.6562,285.1853,74.8865,0,U,56513,999,7658,.10067E-3,.1157E-4,0
STARLINK-5348,2023-065N,2024-09-23T06:21:01.210176,15.02537463,.0001072,43.0036,223.4370,271.0010,89.0710,0,U,56515,999,7653,.75248E-4,.813E-5,0
STARLINK-5342,2023-065P,2024-09-23T14:27:38.649888,15.02543003,.0001279,43.0023,221.6735,264.4259,95.6437,0,U,56516,999,7658,.88306E-4,.99E-5,0
STARLINK-5345,2023-065Q,2024-09-23T07:43:57.707616,15.02535950,.0001128,43.0028,223.0080,263.0754,96.9960,0,U,56517,999,7654,.5764E-4,.575E-5,0
STARLINK-5346,2023-065R,2024-09-23T14:14:51.960480,15.02541138,.0001038,43.0022,221.6061,269.1859,90.8865,0,U,56518,999,7658,.12699E-3,.1512E-4,0
STARLINK-6313,2023-065S,2024-09-23T14:00:28.455552,15.02542021,.0001178,43.0040,221.5293,253.4071,106.6642,0,U,56519,999,7658,.12775E-3,.1523E-4,0
STARLINK-6344,2023-065T,2024-09-23T14:10:04.035072,15.02538380,.0001213,43.0044,221.5799,262.9272,97.1432,0,U,56520,999,7658,.84714E-4,.941E-5,0
STARLINK-6333,2023-065U,2024-09-23T13:26:54.826656,15.02538638,.0001378,43.0027,221.3530,276.3440,83.7245,0,U,56521,999,7658,.95684E-4,.1089E-4,0
STARLINK-6327,2023-065V,2024-09-23T14:02:04.392384,15.02538304,.0001313,43.0039,221.5386,266.8391,93.2301,0,U,56522,999,7658,.10892E-3,.1268E-4,0
STARLINK-6328,2023-065W,2024-09-23T13:33:18.353664,15.02536132,.0001295,43.0029,221.3914,275.2293,84.8402,0,U,56523,999,7658,.92352E-4,.1044E-4,0
STARLINK-6323,2023-065X,2024-09-23T13:46:06.816000,15.02548491,.0001222,43.0009,221.4570,262.4621,97.6082,0,U,56524,999,7658,.58099E-3,.7656E-4,0
STARLINK-6329,2023-065Y,2024-09-23T05:25:04.502784,15.02545929,.0001005,42.9998,223.1561,282.2945,77.7785,0,U,56525,999,7653,.77843E-4,.848E-5,0
