STARLINK-5842           
1 56491U 23064AV  24267.55343041  .00001893  00000+0  16634-3 0  9999
2 56491  70.0012   6.1600 0003035 268.3969  91.6842 14.98335103 76521
STARLINK-5846           
1 56492U 23064AW  24267.48249652  .00000411  00000+0  42249-4 0  9992
2 56492  70.0010   6.3124 0002864 265.7187  94.3645 14.98332412 76515
STARLINK-5841           
1 56493U 23064AX  24267.49910669  .00002039  00000+0  17858-3 0  9992
2 56493  70.0009 346.0910 0003159 270.3821  89.6976 14.98334385 77017
STARLINK-5530           
1 56494U 23064AY  24267.54943133  .00010402  00000+0  87803-3 0  9991
2 56494  70.0021   6.1451 0002948 266.0922  93.9900 14.98340675 76524
STARLINK-5529           
1 56495U 23064AZ  24267.54090599  .00001477  00000+0  13154-3 0  9991
2 56495  70.0014   6.1153 0003235 267.6610  92.4178 14.98333425 76523
STARLINK-5526           
1 56496U 23064BA  24267.53673261  .00001267  00000+0  11394-3 0  9995
2 56496  70.0016   6.1025 0002943 265.9084  94.1739 14.98333341 76524
STARLINK-5527           
1 56497U 23064BB  24267.53272574  .00001140  00000+0  10331-3 0  9998
2 56497  70.0014   6.0883 0003160 268.2574  91.8223 14.98331205 76525
STARLINK-5522           
1 56498U 23064BC  24267.54508182  .00000198  00000+0  24420-4 0  9994
2 56498  70.0010   6.1299 0003231 267.3080  92.7709 14.98332688 76520
STARLINK-5775           
1 56503U 23065A   24267.22364775  .00000711  00000+0  67671-4 0  9991
2 56503  43.0028 223.9948 0001337 262.2974  97.7717 15.02533670 76521
STARLINK-5716           
1 56504U 23065B   24267.22031806  .00000601  00000+0  59525-4 0  9995
2 56504  43.0007 223.9696 0001328 264.6149  95.4542 15.02536332 76528
STARLINK-5763           
1 56505U 23065C   24267.35105187  .00002195  00000+0  17746-3 0  9992
2 56505  43.0018 223.2293 0001069 265.1540  94.9180 15.02540285 76546
STARLINK-5340           
1 56506U 23065D   24267.55850843  .00001030  00000+0  91316-4 0  9994
2 56506  43.0041 209.1904 0001266 266.4215  93.6482 15.02540369 75944
STARLINK-5333           
1 56507U 23065E   24267.48921559  .00001540  00000+0  12906-3 0  9993
2 56507  43.0061 183.5076 0001267 266.0933  93.9764 15.02538043 77018
STARLINK-5335           
1 56508U 23065F   24267.21476316  .00001697  00000+0  14063-3 0  9990
2 56508  43.0006 223.9276 0001294 270.1150  89.9544 15.02541183 76521
STARLINK-5334           
1 56509U 23065G   24267.60474927 -.00001236  00000+0 -76384-4 0  9996
2 56509  43.0037 221.6910 0001201 264.2063  95.8642 15.02552321 75802
STARLINK-5339           
1 56510U 23065H   24267.61140781  .00001436  00000+0  12133-3 0  9998
2 56510  43.0033 221.7415 0001262 265.7985  94.2713 15.02543879 75807
STARLINK-5351           
1 56511U 23065J   24267.60161479  .00012834  00000+0  95388-3 0  9992
2 56511  42.9997 221.6675 0001228 253.5320 106.5387 15.02912016 75809
STARLINK-5349           
1 56512U 23065K   24267.60307908  .00018774  00000+0  13765-2 0  9999
2 56512  43.0015 221.6804 0001330 243.9623 116.1083 15.03205175 75802
STARLINK-5329           
1 56513U 23065L   24267.60031291  .00001157  00000+0  10067-3 0  9999
2 56513  43.0024 221.6562 0001124 285.1853  74.8865 15.02543981 75805
STARLINK-5348           
1 56515U 23065N   24267.26459734  .00000813  00000+0  75248-4 0  9990
2 56515  43.0036 223.4370 0001072 271.0010  89.0710 15.02537463 76534
STARLINK-5342           
1 56516U 23065P   24267.60253067  .00000990  00000+0  88306-4 0  9995
2 56516  43.0023 221.6735 0001279 264.4259  95.6437 15.02543003 76587
STARLINK-5345           
1 56517U 23065Q   24267.32219569  .00000575  00000+0  57640-4 0  9990
2 56517  43.0028 223.0080 0001128 263.0754  96.9960 15.02535950 76543
STARLINK-5346           
1 56518U 23065R   24267.59365695  .00001512  00000+0  12699-3 0  9998
2 56518  43.0022 221.6061 0001038 269.1859  90.8865 15.02541138 76580
STARLINK-6313           
1 56519U 23065S   24267.58366268  .00001523  00000+0  12775-3 0  9992
2 56519  43.0040 221.5293 0001178 253.4071 106.6642 15.02542021 76585
STARLINK-6344           
1 56520U 23065T   24267.59032448  .00000941  00000+0  84714-4 0  9991
2 56520  43.0044 221.5799 0001213 262.9272  97.1432 15.02538380 76584
STARLINK-6333           
1 56521U 23065U   24267.56035679  .00001089  00000+0  95684-4 0  9990
2 56521  43.0027 221.3530 0001378 276.3440  83.7245 15.02538638 76584
STARLINK-6327           
1 56522U 23065V   24267.58477306  .00001268  00000+0  10892-3 0  9996
2 56522  43.0039 221.5386 0001313 266.8391  93.2301 15.02538304 75800
STARLINK-6328           
1 56523U 23065W   24267.56479576  .00001044  00000+0  92352-4 0  9990
2 56523  43.0029 221.3914 0001295 275.2293  84.8402 15.02536132 76580
STARLINK-6323           
1 56524U 23065X   24267.57369000  .00007656  00000+0  58099-3 0  9996
2 56524  43.0009 221.4570 0001222 262.4621  97.6082 15.02548491 76588
STARLINK-6329           
1 56525U 23065Y   24267.22574656  .00000848  00000+0  77843-4 0  9999
2 56525  42.9998 223.1561 0001005 282.2945  77.7785 15.02545929 76538
